NORAD_CAT_ID,OBJECT_NAME,OBJECT_TYPE,EPOCH,MEAN_MOTION,ECCENTRICITY,INCLINATION,RA_OF_ASC_NODE,ARG_OF_PERICENTER,MEAN_ANOMALY,BSTAR,MEAN_MOTION_DOT,MEAN_MOTION_DDOT,TLE_LINE0,TLE_LINE1,TLE_LINE2,SEMIMAJOR_AXIS,PERIOD,APOGEE,PERIGEE,DECAYED
51982.0,STARLINK-3650,PAYLOAD,2024-01-21 01:51:24,15.08842882,0.0001626,53.2167,294.4529,91.4688,268.649,0.00039955,6.077e-05,0.0,0 STARLINK-3650,1 51982U 22025AC  24021.07737140  .00006077  00000-0  39955-3 0  9998,2 51982  53.2167 294.4529 0001626  91.4688 268.6490 15.08842882104610,6917.872,95.437,540.861,538.612,0.0
51982.0,STARLINK-3650,PAYLOAD,2024-01-21 22:31:25,15.08841453,0.0001517,53.2159,290.584,99.2091,260.9073,0.00015714,2.214e-05,0.0,0 STARLINK-3650,1 51982U 22025AC  24021.93849135  .00002214  00000-0  15714-3 0  9997,2 51982  53.2159 290.5840 0001517  99.2091 260.9073 15.08841453103644,6917.876,95.437,540.79,538.692,0.0
51982.0,STARLINK-3650,PAYLOAD,2024-01-22 03:17:34,15.08846688,0.00016,53.2167,289.69,93.9003,266.2172,0.00022773,3.339e-05,0.0,0 STARLINK-3650,1 51982U 22025AC  24022.13720990  .00003339  00000-0  22773-3 0  9999,2 51982  53.2167 289.6900 0001600  93.9003 266.2172 15.08846688104775,6917.86,95.437,540.832,538.618,0.0
51982.0,STARLINK-3650,PAYLOAD,2024-01-22 20:46:49,15.08836001,0.0001629,53.2177,286.4168,96.6756,263.4422,0.00035262,5.328e-05,0.0,0 STARLINK-3650,1 51982U 22025AC  24022.86585500  .00005328  00000-0  35262-3 0  9992,2 51982  53.2177 286.4168 0001629  96.6756 263.4422 15.08836001103788,6917.893,95.438,540.885,538.631,0.0
51982.0,STARLINK-3650,PAYLOAD,2024-01-22 23:57:35,15.08846824,0.0001623,53.2174,285.8214,100.8586,259.2589,0.00018748,2.698e-05,0.0,0 STARLINK-3650,1 51982U 22025AC  24022.99832876  .00002698  00000-0  18748-3 0  9994,2 51982  53.2174 285.8214 0001623 100.8586 259.2589 15.08846824104909,6917.86,95.437,540.847,538.602,0.0
51982.0,STARLINK-3650,PAYLOAD,2024-01-23 22:12:59,15.08847429,0.0001584,53.2166,281.6605,103.1517,256.9652,0.00016244,2.299e-05,0.0,0 STARLINK-3650,1 51982U 22025AC  24023.92568741  .00002299  00000-0  16244-3 0  9991,2 51982  53.2166 281.6605 0001584 103.1517 256.9652 15.08847429103944,6917.858,95.437,540.818,538.627,0.0
51982.0,STARLINK-3650,PAYLOAD,2024-01-23 23:48:22,15.08847503,0.0001558,53.2167,281.3633,102.165,257.9517,0.00013076,1.794e-05,0.0,0 STARLINK-3650,1 51982U 22025AC  24023.99192691  .00001794  00000-0  13076-3 0  9994,2 51982  53.2167 281.3633 0001558 102.1650 257.9517 15.08847503105059,6917.857,95.437,540.8,538.645,0.0
51982.0,STARLINK-3650,PAYLOAD,2024-01-24 20:28:23,15.08840227,0.0001558,53.2165,277.4988,90.4356,269.6815,2.6155e-05,1.28e-06,0.0,0 STARLINK-3650,1 51982U 22025AC  24024.85305121  .00000128  00000-0  26155-4 0  9997,2 51982  53.2165 277.4988 0001558  90.4356 269.6815 15.08840227105189,6917.88,95.438,540.823,538.667,0.0
51982.0,STARLINK-3650,PAYLOAD,2024-01-24 22:03:46,15.08838884,0.0001549,53.2164,277.2014,90.912,269.2049,-2.422e-06,-3.27e-06,0.0,0 STARLINK-3650,1 51982U 22025AC  24024.91929137 -.00000327  00000-0 -24220-5 0  9998,2 51982  53.2164 277.2014 0001549  90.9120 269.2049 15.08838884104090,6917.884,95.438,540.82,538.677,0.0
51982.0,STARLINK-3650,PAYLOAD,2024-01-24 23:39:10,15.08839252,0.0001513,53.2171,276.9042,88.8785,271.238,2.491e-05,1.08e-06,0.0,0 STARLINK-3650,1 51982U 22025AC  24024.98553323  .00000108  00000-0  24910-4 0  9995,2 51982  53.2171 276.9042 0001513  88.8785 271.2380 15.08839252104102,6917.883,95.438,540.794,538.701,0.0
51982.0,STARLINK-3650,PAYLOAD,2024-01-25 21:54:34,15.08837717,0.000148,53.2169,272.7395,96.4913,263.6248,4.8241e-05,4.8e-06,0.0,0 STARLINK-3650,1 51982U 22025AC  24025.91289371  .00000480  00000-0  48241-4 0  9994,2 51982  53.2169 272.7395 0001480  96.4913 263.6248 15.08837717104242,6917.887,95.438,540.776,538.729,0.0
51982.0,STARLINK-3650,PAYLOAD,2024-01-25 23:29:57,15.08837795,0.0001469,53.2169,272.4423,94.8377,265.2782,4.4813e-05,4.25e-06,0.0,0 STARLINK-3650,1 51982U 22025AC  24025.97913380  .00000425  00000-0  44813-4 0  9994,2 51982  53.2169 272.4423 0001469  94.8377 265.2782 15.08837795105354,6917.887,95.438,540.768,538.736,0.0
51982.0,STARLINK-3650,PAYLOAD,2024-01-26 23:20:43,15.08847241,0.0001404,53.2167,267.9834,86.2115,273.9038,0.00016784,2.385e-05,0.0,0 STARLINK-3650,1 51982U 22025AC  24026.97272628  .00002385  00000-0  16784-3 0  9990,2 51982  53.2167 267.9834 0001404  86.2115 273.9038 15.08847241105505,6917.858,95.437,540.695,538.752,0.0
51982.0,STARLINK-3650,PAYLOAD,2024-01-27 20:00:45,15.08837968,0.000145,53.2171,264.1167,76.4534,283.662,5.7038e-05,6.2e-06,0.0,0 STARLINK-3650,1 51982U 22025AC  24027.83385751  .00000620  00000-0  57038-4 0  9996,2 51982  53.2171 264.1167 0001450  76.4534 283.6620 15.08837968105639,6917.887,95.438,540.755,538.749,0.0
51982.0,STARLINK-3650,PAYLOAD,2024-01-27 21:36:08,15.088369,0.0001377,53.217,263.8193,80.2057,279.9091,4.3678e-05,4.07e-06,0.0,0 STARLINK-3650,1 51982U 22025AC  24027.90009762  .00000407  00000-0  43678-4 0  9997,2 51982  53.2170 263.8193 0001377  80.2057 279.9091 15.08836900104548,6917.89,95.438,540.707,538.802,0.0
51982.0,STARLINK-3650,PAYLOAD,2024-01-28 00:46:54,15.08836006,0.000135,53.2168,263.2247,82.7245,277.39,3.331e-05,2.42e-06,0.0,0 STARLINK-3650,1 51982U 22025AC  24028.03257833  .00000242  00000-0  33310-4 0  9995,2 51982  53.2168 263.2247 0001350  82.7245 277.3900 15.08836006104566,6917.893,95.438,540.692,538.824,0.0
51982.0,STARLINK-3650,PAYLOAD,2024-01-28 21:26:55,15.08847885,0.0001369,53.2166,259.3582,77.3023,282.8122,-0.00010054,-1.888e-05,0.0,0 STARLINK-3650,1 51982U 22025AC  24028.89369684 -.00001888  00000-0 -10054-3 0  9995,2 51982  53.2166 259.3582 0001369  77.3023 282.8122 15.08847885104694,6917.856,95.437,540.668,538.774,0.0
51982.0,STARLINK-3650,PAYLOAD,2024-01-29 00:37:41,15.08855583,0.0001602,53.2174,258.7619,74.9849,285.132,-0.0001397,-2.512e-05,0.0,0 STARLINK-3650,1 51982U 22025AC  24029.02617292 -.00002512  00000-0 -13970-3 0  9997,2 51982  53.2174 258.7619 0001602  74.9849 285.1320 15.08855583105811,6917.833,95.437,540.806,538.59,0.0
51982.0,STARLINK-3650,PAYLOAD,2024-01-29 14:56:09,15.08839927,0.0001389,53.2167,256.087,82.3292,277.7858,0.00012071,1.634e-05,0.0,0 STARLINK-3650,1 51982U 22025AC  24029.62233468  .00001634  00000-0  12071-3 0  9995,2 51982  53.2167 256.0870 0001389  82.3292 277.7858 15.08839927105907,6917.881,95.438,540.707,538.785,0.0
51982.0,STARLINK-3650,PAYLOAD,2024-01-30 00:28:27,15.08847668,0.0001382,53.2161,254.3053,84.9417,275.1733,0.00017096,2.434e-05,0.0,0 STARLINK-3650,1 51982U 22025AC  24030.01976737  .00002434  00000-0  17096-3 0  9994,2 51982  53.2161 254.3053 0001382  84.9417 275.1733 15.08847668105966,6917.857,95.437,540.678,538.766,0.0
51982.0,STARLINK-3650,PAYLOAD,2024-01-30 19:33:06,15.08842416,0.0001401,53.2163,250.738,108.1082,252.0063,8.6003e-06,-1.51e-06,0.0,0 STARLINK-3650,1 51982U 22025AC  24030.81465425 -.00000151  00000-0  86003-5 0  9990,2 51982  53.2163 250.7380 0001401 108.1082 252.0063 15.08842416106080,6917.873,95.437,540.707,538.769,0.0
51982.0,STARLINK-3650,PAYLOAD,2024-01-30 21:08:29,15.08817118,0.000148,53.2173,250.4405,119.1038,241.0102,0.00029801,4.455e-05,0.0,0 STARLINK-3650,1 51982U 22025AC  24030.88089878  .00004455  00000-0  29801-3 0  9992,2 51982  53.2173 250.4405 0001480 119.1038 241.0102 15.08817118104997,6917.95,95.439,540.839,538.791,0.0
51982.0,STARLINK-3650,PAYLOAD,2024-01-31 00:19:15,15.08833451,0.0001372,53.2169,249.8431,117.1054,243.0078,9.8184e-05,1.275e-05,0.0,0 STARLINK-3650,1 51982U 22025AC  24031.01337553  .00001275  00000-0  98184-4 0  9992,2 51982  53.2169 249.8431 0001372 117.1054 243.0078 15.08833451106117,6917.9,95.438,540.715,538.816,0.0
51982.0,STARLINK-3650,PAYLOAD,2024-02-01 00:10:02,15.08858334,0.000151,53.217,245.3828,103.9128,256.2032,-0.00030242,-5.1e-05,0.0,0 STARLINK-3650,1 51982U 22025AC  24032.00697105 -.00005100  00000-0 -30242-3 0  9997,2 51982  53.2170 245.3828 0001510 103.9128 256.2032 15.08858334106268,6917.824,95.436,540.734,538.645,0.0
51982.0,STARLINK-3650,PAYLOAD,2024-02-01 14:28:31,15.08834522,0.0001455,53.2168,242.7062,100.1795,259.9361,3.544e-05,2.76e-06,0.0,0 STARLINK-3650,1 51982U 22025AC  24032.60313888  .00000276  00000-0  35440-4 0  9999,2 51982  53.2168 242.7062 0001455 100.1795 259.9361 15.08834522106351,6917.897,95.438,540.769,538.756,0.0
51982.0,STARLINK-3650,PAYLOAD,2024-02-02 00:00:50,15.08835756,0.0001481,53.2168,240.9217,101.4845,258.6313,4.5941e-05,4.43e-06,0.0,0 STARLINK-3650,1 51982U 22025AC  24033.00057899  .00000443  00000-0  45941-4 0  9994,2 51982  53.2168 240.9217 0001481 101.4845 258.6313 15.08835756105310,6917.893,95.438,540.783,538.734,0.0
51982.0,STARLINK-3650,PAYLOAD,2024-02-02 19:05:27,15.08837242,0.0001387,53.2159,237.3537,99.164,260.9509,7.7475e-05,9.45e-06,0.0,0 STARLINK-3650,1 51982U 22025AC  24033.79545875  .00000945  00000-0  77475-4 0  9990,2 51982  53.2159 237.3537 0001387  99.1640 260.9509 15.08837242106536,6917.889,95.438,540.713,538.794,0.0
51982.0,STARLINK-3650,PAYLOAD,2024-02-02 23:51:37,15.0883734,0.0001416,53.2161,236.4619,100.3793,259.7359,7.4737e-05,9.02e-06,0.0,0 STARLINK-3650,1 51982U 22025AC  24033.99417896  .00000902  00000-0  74737-4 0  9994,2 51982  53.2161 236.4619 0001416 100.3793 259.7359 15.08837340105466,6917.889,95.438,540.733,538.774,0.0
51982.0,STARLINK-3650,PAYLOAD,2024-02-03 20:31:38,15.08835505,0.0001313,53.2156,232.5952,93.0154,267.0988,2.9716e-05,1.85e-06,0.0,0 STARLINK-3650,1 51982U 22025AC  24034.85530441  .00000185  00000-0  29716-4 0  9992,2 51982  53.2156 232.5952 0001313  93.0154 267.0988 15.08835505105597,6917.894,95.438,540.667,538.851,0.0
51982.0,STARLINK-3650,PAYLOAD,2024-02-04 12:25:29,15.08838731,0.0001319,53.2154,229.6211,98.8813,261.2329,3.3846e-05,2.51e-06,0.0,0 STARLINK-3650,1 51982U 22025AC  24035.51770374  .00000251  00000-0  33846-4 0  9990,2 51982  53.2154 229.6211 0001319  98.8813 261.2329 15.08838731105691,6917.884,95.438,540.662,538.837,0.0
